X,Y,OBJECTID,SAP_ID,Station,Station_Type,County,Region,Division,Country,LifesavingDelivRegion,LifesavingAreaID,Lat_Dec_Deg,Long_Dec_Deg
-1.375200231999941,60.286308828000074,1,2354,Aith,ALB,Shetland Islands,Scotland & North,Central & Shetland,Scotland,Scotland,1,60.286308828,-1.37520023199995
-2.960315255999944,58.985404662000064,2,2390,Kirkwall,ALB,Orkney Islands,Scotland & North,Highlands,Scotland,Scotland,1,58.985404662,-2.96031525599995
-1.140219956999942,60.153286647000073,3,2372,Lerwick,ALB,Shetland Islands,Scotland & North,Central & Shetland,Scotland,Scotland,1,60.153286647,-1.14021995699995
-3.206880878999925,58.800575701000071,4,2318,Longhope,ALB,Orkney Islands,Scotland & North,Highlands,Scotland,Scotland,1,58.800575701,-3.20688087899995
-3.297689914999978,58.963336945000037,5,2336,Stromness,ALB,Orkney Islands,Scotland & North,Highlands,Scotland,Scotland,1,58.9633369445801,-3.29768991470337
-2.952715635999937,57.680841383000029,6,2423,Buckie,ALB,Moray,Scotland & North,Highlands,Scotland,Scotland,2,57.680841383,-2.95271563599995
-4.167407225999966,57.686543953000069,7,2415,Invergordon,ALB,Highland,Scotland & North,Highlands,Scotland,Scotland,2,57.686543953,-4.16740722599995
-4.234653789999925,57.500991070000055,8,2419,Kessock,ILB,Highland,Scotland & North,Highlands,Scotland,Scotland,2,57.50099107,-4.23465378999995
-4.444432279999944,57.336744920000058,9,2421,Loch Ness,ILB,Highland,Scotland & North,Highlands,Scotland,Scotland,2,57.33674492,-4.44443227999995
-2.49427239299996,57.672697405000065,10,2434,Macduff,ILB,Aberdeenshire,Scotland & North,Highlands,Scotland,Scotland,2,57.672697405,-2.49427239299995
-3.546979762999968,58.612120666000067,11,2281,Thurso,ALB,Highland,Scotland & North,Highlands,Scotland,Scotland,2,58.612120666,-3.54697976299995
-3.082953398999962,58.439336508000054,12,2401,Wick,ALB,Highland,Scotland & North,Highlands,Scotland,Scotland,2,58.439336508,-3.08295339899995
-2.080430700999955,57.144039124000074,13,2489,Aberdeen,ALB/ILB,Aberdeenshire,Scotland & North,Central & Shetland,Scotland,Scotland,3,57.144039124,-2.08043070099995
-2.584826646999943,56.55526661600004,14,2546,Arbroath,ALB/ILB,Angus,Scotland & North,Central & Shetland,Scotland,Scotland,3,56.555266616,-2.58482664699995
-2.8774,56.465,15,2568,Broughty Ferry,ALB/ILB,City Of Dundee,Scotland & North,Central & Shetland,Scotland,Scotland,3,56.465,-2.87739999999995
-2.002823983999974,57.693571060000068,16,2445,Fraserburgh,ALB,Aberdeenshire,Scotland & North,Highlands,Scotland,Scotland,3,57.69357106,-2.00282398399995
-2.463907850999931,56.703663388000052,17,2524,Montrose,ALB/ILB,Angus,Scotland & North,Central & Shetland,Scotland,Scotland,3,56.703663388,-2.46390785099995
-1.774634314999957,57.503041869000072,18,2467,Peterhead,ALB,Aberdeenshire,Scotland & North,Highlands,Scotland,Scotland,3,57.503041869,-1.77463431499995
-2.201313223999932,56.960638257000028,19,2502,Stonehaven,ILB,Aberdeenshire,Scotland & North,Central & Shetland,Scotland,Scotland,3,56.960638257,-2.20131322399995
-2.697317617999943,56.221519597000054,20,2580,Anstruther,ALB/ILB,Fife,Scotland & North,Central & Shetland,Scotland,Scotland,4,56.221519597,-2.69731761799995
-2.51490935299995,56.00504316200005,21,2677,Dunbar,ALB/ILB,East Lothian,Scotland & North,Central & Shetland,Scotland,Scotland,4,56.005043162,-2.51490935299995
-2.086114882999937,55.872177124000075,22,2702,Eyemouth,ALB,Scottish Borders,Scotland & North,Central & Shetland,Scotland,Scotland,4,55.8721771240234,-2.08611488342285
-3.173953912999934,56.068548113000077,23,2611,Kinghorn,ILB,Fife,Scotland & North,Central & Shetland,Scotland,Scotland,4,56.068548113,-3.17395391299995
-2.717633532999969,56.060237294000046,24,2655,North Berwick,ILB,East Lothian,Scotland & North,Central & Shetland,Scotland,Scotland,4,56.060237294,-2.71763353299995
-3.3852,55.9906,25,2633,Queensferry,ILB,City Of Edinburgh,Scotland & North,Central & Shetland,Scotland,Scotland,4,55.9906,-3.38519999999995
-1.5816,55.3364,26,3083,Amble,ALB/ILB,Northumberland,Scotland & North,North & Scot South,England,North and East,5,55.3364,-1.58159999999995
-2.000278441999967,55.760970935000046,27,3029,Berwick-Upon-Tweed,ALB/ILB,Northumberland,Scotland & North,North & Scot South,England,North and East,5,55.760970935,-2.00027844199995
-1.498049020999929,55.125591278000059,28,3120,Blyth,ILB,Northumberland,Scotland & North,North & Scot South,England,North and East,5,55.1255912780762,-1.49804902076721
-1.594139505999976,55.472629986000072,29,3065,Craster,ILB,Northumberland,Scotland & North,North & Scot South,England,North and East,5,55.472629986,-1.59413950599995
-1.432090663999929,55.03551996300007,30,3148,Cullercoats,ILB,Tyne & Wear,Scotland & North,North & Scot South,England,North and East,5,55.035519963,-1.43209066399995
-1.5066,55.1859,31,3101,Newbiggin,ILB,Northumberland,Scotland & North,North & Scot South,England,North and East,5,55.1859,-1.50659999999995
-1.6539,55.5829,32,3047,Seahouses,ALB/ILB,Northumberland,Scotland & North,North & Scot South,England,North and East,5,55.5829,-1.65389999999995
-1.432921673999942,55.009111693000079,33,3156,Tynemouth,ALB/ILB,Tyne & Wear,Scotland & North,North & Scot South,England,North and East,5,55.009111693,-1.43292167399995
-1.190959766999924,54.694837765000045,34,3210,Hartlepool,ALB/ILB,County Durham,Scotland & North,North & Scot South,England,North and East,6,54.694837765,-1.19095976699995
-1.063666608999938,54.618586876000052,35,3231,Redcar,ILB,North Yorkshire,Scotland & North,North & Scot South,England,North and East,6,54.618586876,-1.06366660899995
-0.791727453999954,54.559757172000047,36,3249,Staithes And Runswick,ILB,North Yorkshire,Scotland & North,North & Scot South,England,North and East,6,54.559757172,-0.791727453999952
-1.367461034999963,54.919939900000031,37,3167,Sunderland,ILB,Tyne & Wear,Scotland & North,North & Scot South,England,North and East,6,54.9199399,-1.36746103499995
-0.613084887999946,54.488180451000062,38,3276,Whitby,ALB/ILB,North Yorkshire,Scotland & North,North & Scot South,England,North and East,6,54.488180451,-0.613084887999952
-0.199732765999954,54.076464225000052,39,3355,Bridlington,ALB/ILB,East Riding Of Yorkshire,East,East,England,North and East,7,54.076464225,-0.199732765999952
-0.283378295999967,54.211306433000061,40,3319,Filey,ALB/ILB,North Yorkshire,Scotland & North,North & Scot South,England,North and East,7,54.211306433,-0.283378295999952
-0.118986898999935,54.104723601000046,41,3337,Flamborough,ILB,East Riding Of Yorkshire,East,East,England,North and East,7,54.104723601,-0.118986898999952
0.1107,53.5764,42,3373,Humber,ALB,East Riding Of Yorkshire,East,East,England,North and East,7,53.5764,0.110700000000048
-0.393126723999956,54.283454610000035,43,3298,Scarborough,ALB/ILB,North Yorkshire,Scotland & North,North & Scot South,England,North and East,7,54.28345461,-0.393126723999952
0.040723640000067,53.726104306000082,44,3361,Withernsea,ILB,East Riding Of Yorkshire,East,East,England,North and East,7,53.726104306,0.040723640000048
-0.023211422999964,53.55687998500008,45,3384,Cleethorpes,ILB,Lincolnshire,East,East,England,North and East,8,53.556879985,-0.023211422999952
0.5026,52.9541,46,3435,Hunstanton,ILB/IRH,Norfolk,East,East,England,North and East,8,52.9541,0.502600000000048
0.266,53.3408,47,3402,Mablethorpe,ILB,Lincolnshire,East,East,England,North and East,8,53.3408,0.266000000000048
1.202743987000076,52.945925794000061,48,3468,Sheringham,ILB,Norfolk,East,East,England,North and East,8,52.945925794,1.20274398700004
0.346730248000028,53.141764937000062,49,3424,Skegness,ALB/ILB,Lincolnshire,East,East,England,North and East,8,53.141764937,0.346730248000048
0.851731633000043,52.97299526200004,50,3446,Wells,ALB/ILB,Norfolk,East,East,England,North and East,8,52.972995262,0.851731633000048
1.301703614000076,52.934366261000037,51,3507,Cromer,ALB/ILB,Norfolk,East,East,England,North and East,9,52.934366261,1.30170361400004
1.731969864000064,52.575247902000058,52,3553,Gt Yarmouth & Gorleston,ALB/ILB,Norfolk,East,East,England,North and East,9,52.575247902,1.73196986400004
1.556197324000038,52.813298173000078,53,3531,Happisburgh,ILB,Norfolk,East,East,England,North and East,9,52.813298173,1.55619732400004
1.752812469000048,52.471691700000065,54,3575,Lowestoft,ALB,Suffolk,East,East,England,North and East,9,52.4716917,1.75281246900004
1.672481755000035,52.314983004000055,55,3597,Southwold,ILB,Suffolk,East,East,England,North and East,9,52.314983004,1.67248175500004
1.602616185000045,52.152270576000035,56,3624,Aldeburgh,ALB/ILB,Suffolk,East,East,England,North and East,10,52.152270576,1.60261618500004
0.802529991000029,51.629184723000037,57,4500,Burnham-On-Crouch,ILB,Essex,East ,South East,England,North and East,10,51.6291847229004,0.802529990673065
1.1413,51.7815,58,3708,Clacton-On-Sea,ILB,Essex,East,East,England,North and East,10,51.7815,1.14130000000004
1.287184357000058,51.948657265000065,59,3646,Harwich,ALB/ILB,Essex,East,East,England,North and East,10,51.948657265,1.28718435700004
1.271191650000048,51.847245188000045,60,3668,Walton & Frinton,ALB,Essex,East,East,England,North and East,10,51.847245188,1.27119165000004
0.898663509000073,51.780336524000063,61,3710,West Mersea,ILB,Essex,East,East,England,North and East,10,51.780336524,0.898663509000048
-0.251584269999967,51.482196206000026,62,4536,Chiswick,ILB,Greater London,East,South East,England,South East,11,51.482196206,-0.251584269999952
0.374681366000061,51.445264788000031,63,4530,Gravesend,ILB,Kent,East,South East,England,South East,11,51.445264788,0.374681366000048
0.744001985000068,51.446178436000082,64,4544,Sheerness,ALB/ILB,Kent,East,South East,England,South East,11,51.4461784362793,0.744001984596252
0.716346025000064,51.532424927000079,65,4522,Southend-On-Sea,ILB/IRH,Essex,East,South East,England,South East,11,51.5324249267578,0.716346025466919
-0.32606335,51.430628716000058,66,4539,Teddington,ILB,Greater London,East,South East,England,South East,11,51.430628716,-0.326063349999952
-0.117225497999925,51.509919995000075,67,4533,Tower,ILB,Greater London,East,South East,England,South East,11,51.509919995,-0.117225497999952
1.382693269000072,51.391616488000068,68,4588,Margate,ALB/ILB,Kent,East,South East,England,South East,12,51.391616488,1.38269326900004
1.419671397000059,51.328903295000032,69,4608,Ramsgate,ALB/ILB,Kent,East,South East,England,South East,12,51.328903295,1.41967139700004
1.402989773000058,51.213531556000078,70,4626,Walmer,ILB,Kent,East,South East,England,South East,12,51.213531556,1.40298977300004
1.025766881000038,51.362590523000051,71,4566,Whitstable,ILB,Kent,East,South East,England,South East,12,51.362590523,1.02576688100004
1.3106,51.1183,72,5113,Dover,ALB,Kent,East,South East,England,South East,13,51.1183,1.31060000000004
0.976546851000023,50.926506371000073,73,5146,Dungeness,ALB,Kent,East,South East,England,South East,13,50.926506371,0.976546851000048
0.591785851000054,50.854919346000031,74,5189,Hastings,ALB/ILB,East Sussex,East,South East,England,South East,13,50.854919346,0.591785851000048
0.96563554100004,50.97459350500003,75,5135,Littlestone-On-Sea,ILB,Kent,East,South East,England,South East,13,50.974593505,0.965635541000048
0.76410551400005,50.938482370000031,76,5167,Rye Harbour,ILB,East Sussex,East,South East,England,South East,13,50.93848237,0.764105514000048
-0.1043,50.8109,77,5255,Brighton,ILB,East Sussex,East,South East,England,South East,14,50.8109,-0.104299999999952
0.327696110000034,50.791179021000062,78,5211,Eastbourne,ALB/ILB,East Sussex,East ,South East,England,South East,14,50.791179021,0.327696110000048
-0.544482761999973,50.808029671000043,79,5299,Littlehampton,ILB,West Sussex,East,South East,England,South East,14,50.808029671,-0.544482761999952
0.053719841000031,50.78851703600003,80,5233,Newhaven,ALB,East Sussex,East,South East,England,South East,14,50.788517036,0.053719841000048
-0.778701947999934,50.727136435000034,81,5315,Selsey,ALB/ILB,West Sussex,East,South East,England,South East,14,50.727136435,-0.778701947999952
-0.249,50.8304,82,5277,Shoreham Harbour,ALB/ILB,West Sussex,East,South East,England,South East,14,50.8304,-0.248999999999952
-1.07048001499993,50.690201827000067,83,5471,Bembridge,ALB/ILB,Isle Of Wight,South,Channel,England,South East,15,50.690201827,-1.07048001499995
-1.308301756999924,50.82019518900006,84,5343,Calshot,ILB,Hampshire,South ,Channel,England,South East,15,50.820195189,-1.30830175699995
-1.298098567999943,50.764800583000067,85,5485,Cowes,ILB,Isle Of Wight,South,Channel,England,South East,15,50.764800583,-1.29809856799995
-0.936680627999976,50.781624216000068,86,5320,Hayling Island,ILB,Hampshire,South,Channel,England,South East,15,50.781624216,-0.936680627999952
-1.5291,50.7539,87,5359,Lymington,ILB,Hampshire,South,Central,England,South East,15,50.7539,-1.52909999999995
-1.029810711999971,50.795226199000069,88,5337,Portsmouth,ILB,Hampshire,South,Channel,England,South East,15,50.795226199,-1.02981071199995
-1.50044,50.706162,89,5492,Yarmouth,ALB,Isle Of Wight,South,Channel,England,South East,15,50.706162,-1.50044
-1.74206494799995,50.724319213000058,90,6506,Mudeford,ILB,Dorset,South,Channel,England,South East,16,50.724319213,-1.74206494799995
-1.991971958999954,50.712713819000044,91,6515,Poole,ILB,Dorset,South,Channel,England,South East,16,50.712713819,-1.99197195899995
-1.946708257999944,50.607232981000038,92,6522,Swanage,ALB/ILB,Dorset,South,Channel,England,South East,16,50.607232981,-1.94670825799995
-2.200105573999963,49.723992022000061,93,6678,Alderney,ALB,Alderney,South,Channel,Channel Isles,South East,17,49.723992022,-2.20010557399995
-2.030262493999942,49.217959925000059,94,6643,St Catherine,ILB,Jersey,South,Channel,Channel Isles,South East,17,49.217959925,-2.03026249399995
-2.1128,49.1805,95,6661,St Helier,ALB/ILB,Jersey,South,Channel,Channel Isles,South East,17,49.1805,-2.11279999999995
-2.533414533999974,49.45274248700008,96,6625,St Peter Port,ALB,Guernsey,South,Channel,Channel Isles,South East,17,49.452742487,-2.53341453399995
-3.399014831999978,50.610981629000037,97,6586,Exmouth,ALB/ILB,Devon,South,Channel,England,South West,18,50.610981629,-3.39901483199995
-2.939,50.7204,98,6565,Lyme Regis,ILB,Dorset,South,Central,England,South West,18,50.7204,-2.93899999999995
-3.497901689999935,50.54216705500005,99,6598,Teignmouth,ILB,Devon,South,Channel,England,South West,18,50.542167055,-3.49790168999995
-3.505521488999932,50.399183793000077,100,6609,Torbay,ALB/ILB,Devon,South,Channel,England,South West,18,50.399183793,-3.50552148899995
-2.45015811899998,50.607242584000062,101,6544,Weymouth,ALB/ILB,Dorset,South,Channel,England,South West,18,50.6072425842285,-2.45015811920166
-3.578011883999977,50.354730539000059,102,6613,Dart,ILB,Devon,South,Channel,England,South West,19,50.354730539,-3.57801188399995
-4.1504,50.3631,103,6716,Plymouth,ALB/ILB,Devon,South,South West,England,South West,19,50.3631,-4.15039999999995
-3.76671208199997,50.238604377000058,104,6617,Salcombe,ALB/ILB,Devon,South,South West,England,South West,19,50.238604377,-3.76671208199995
-5.0592,50.1514,105,6750,Falmouth,ALB/ILB,Cornwall,South,South West,England,South West,20,50.1514,-5.0592
-4.632329422999931,50.338721722000059,106,6738,Fowey,ALB/ILB,Cornwall,South,South West,England,South West,20,50.338721722,-4.63232942299995
-4.453241022999975,50.35201931000006,107,6725,Looe,ILB,Cornwall,South,South West,England,South West,20,50.35201931,-4.45324102299995
-5.187045013999978,49.969511829000055,108,6794,The Lizard,ALB,Cornwall,South,South West,England,South West,20,49.969511829,-5.18704501399995
-5.548723220999932,50.103931427000077,109,6816,Penlee,ALB/ILB,Cornwall,South,South West,England,South West,21,50.103931427002,-5.5487232208252
-5.703655896999976,50.077864008000063,110,7601,Sennen Cove,ALB/ILB,Cornwall,South,South West,England,South West,21,50.077864008,-5.70365589699995
-5.4796,50.2128,111,7613,St Ives,ALB/ILB,Cornwall,South,South West,England,South West,21,50.2128,-5.47959999999995
-5.087124555999935,50.416410726000038,112,7637,Newquay (Cornwall),ILB,Cornwall,South,South West,England,South West,22,50.416410726,-5.08712455599995
-5.2017,50.3195,113,7625,St Agnes,ILB,Cornwall,South,South West,England,South West,22,50.3195,-5.20169999999995
-6.311713370999939,49.916863443000068,114,6835,St Mary's,ALB,Isles Of Scilly,South,South West,England,South West,22,49.916863443,-6.31171337099995
-4.550007875999938,50.830894826000076,115,7793,Bude,ILB,Cornwall,South,South West,England,South West,23,50.830894826,-4.55000787599995
-5.021720112999958,50.549034447000054,116,7659,Padstow,ALB,Cornwall,South,South West,England,South West,23,50.549034447,-5.02172011299995
-4.831992476999972,50.592012253000064,117,7771,Port Isaac,ILB,Cornwall,South,South West,England,South West,23,50.592012253,-4.83199247699995
-4.924478921999935,50.544642779000071,118,7700,Rock,ILB,Cornwall,South,South West,England,South West,23,50.544642779,-4.92447892199995
-4.19986903299997,51.056909316000031,119,7836,Appledore,ALB/ILB,Devon,South,South West,England,South West,24,51.056909316,-4.19986903299995
-2.9973,51.2337,120,7918,Burnham-On-Sea,ILB,Somerset,West,Wales South & Severn,England,South West,24,51.2337,-2.99729999999995
-4.3976,50.9983,121,7815,Clovelly,ILB,Devon,South,South West,England,South West,24,50.9983,-4.39759999999995
-4.116088369999943,51.209662845000082,122,7860,Ilfracombe,ALB/ILB,Devon,South,South West,England,South West,24,51.209662845,-4.11608836999995
-3.475224220999962,51.214049396000064,123,7901,Minehead,ILB,Somerset,West,Wales South & Severn,England,South West,24,51.214049396,-3.47522422099995
-3.261922655999967,51.39329906100005,124,8102,Barry Dock,ALB,South Glamorgan,West,Wales South & Severn,Wales,Wales and West,25,51.393299061,-3.26192265599995
-3.16901,51.432529815000066,125,8085,Penarth,ILB,South Glamorgan,West,Wales South & Severn,Wales,Wales and West,25,51.432529815,-3.16900999999995
-3.702059058999964,51.474169109000059,126,8146,Porthcawl,ILB,South Glamorgan,West,Wales South & Severn,Wales,Wales and West,25,51.474169109,-3.70205905899995
-2.756786262999981,51.493793173000029,127,7950,Portishead,ILB,Somerset,West,Wales South & Severn,England,Wales and West,25,51.493793173,-2.75678626299995
-2.988006,51.352089,128,7923,Weston-Super-Mare,ILB,Somerset,West,Wales South & Severn,England,Wales and West,25,51.352089,-2.988006
-4.248449439999945,51.67971328200008,129,8226,Burry Port,ILB,Carmarthenshire,West,Wales South & Severn,Wales,Wales and West,26,51.679713282,-4.24844943999995
-4.2011,51.5483,130,8212,Horton & Port Eynon,ILB,Swansea,West,Wales South & Severn,Wales,Wales and West,26,51.5483,-4.20109999999995
-3.816836980999938,51.593538016000082,131,8168,Port Talbot,ILB,Neath Port Talbot,West,Wales South & Severn,Wales,Wales and West,26,51.593538016,-3.81683698099995
-4.693728540999928,51.673089251000079,132,8235,Tenby,ALB/ILB,Pembrokeshire,West,Wales South & Severn,Wales,Wales and West,26,51.673089251,-4.69372854099995
-3.974174975999972,51.569854736000082,133,8180,The Mumbles,ALB/ILB,Swansea,West,Wales South & Severn,Wales,Wales and West,26,51.5698547363281,-3.97417497634888
-5.079037930999959,51.689476347000038,134,8257,Angle,ALB/ILB,Pembrokeshire,West,Wales South & Severn,Wales,Wales and West,27,51.689476347,-5.07903793099995
-4.9842,52.0133,135,8313,Fishguard,ALB/ILB,Pembrokeshire,West,Wales South & Severn,Wales,Wales and West,27,52.0133,-4.98419999999995
-5.107116532999953,51.773168438000027,136,8279,Little & Broad Haven,ILB,Pembrokeshire,West,Wales South & Severn,Wales,Wales and West,27,51.773168438,-5.10711653299995
-5.309104875999935,51.878558765000037,137,8291,St Davids,ALB/ILB,Pembrokeshire,West,Wales South & Severn,Wales,Wales and West,27,51.878558765,-5.30910487599995
-4.04566338799998,52.543235564000042,138,8390,Aberdovey,ILB,Gwynedd,West,Wales South & Severn,Wales,Wales and West,28,52.543235564,-4.04566338799995
-4.088923459999933,52.408782500000029,139,8358,Aberystwyth,ILB,Ceredigion,West,Wales South & Severn,Wales,Wales and West,28,52.4087825,-4.08892345999995
-4.0558,52.7209,140,8414,Barmouth,ALB/ILB,Gwynedd,West,Wales & North West,Wales,Wales and West,28,52.7209,-4.05579999999995
-4.051377135999928,52.481262048000076,141,8379,Borth,ILB,Ceredigion,West ,Wales South & Severn,Wales,Wales and West,28,52.481262048,-4.05137713599995
-4.6995,52.1047,142,8317,Cardigan,ILB,Ceredigion,West,Wales South & Severn,Wales,Wales and West,28,52.1047,-4.69949999999995
-4.357590376999951,52.213498061000053,143,8325,New Quay (Cardiganshire),ALB/ILB,Ceredigion,West,Wales South & Severn,Wales,Wales and West,28,52.213498061,-4.35759037699995
-4.504437662999976,52.826468720000037,144,8464,Abersoch,ILB,Gwynedd,West,Wales South & Severn,Wales,Wales and West,29,52.82646872,-4.50443766299995
-4.0908,53.2622,145,8559,Beaumaris,ILB,Gwynedd,West,Wales & North West,Wales,Wales and West,29,53.2622,-4.09079999999995
-4.230413712999962,52.918001955000079,146,8420,Criccieth,ILB,Gwynedd,West,Wales & North West,Wales,Wales and West,29,52.918001955,-4.23041371299995
-4.641812592999941,53.317998997000075,147,8525,Holyhead,ALB/ILB,Gwynedd,West,Wales & North West,Wales,Wales and West,29,53.317998997,-4.64181259299995
-4.231977206999943,53.354648850000046,148,8537,Moelfre,ALB/ILB,Gwynedd,West,Wales & North West,Wales,Wales and West,29,53.35464885,-4.23197720699995
-4.564596432999963,52.946956974000045,149,8486,Porthdinllaen,ALB/ILB,Gwynedd,West,Wales & North West,Wales,Wales and West,29,52.946956974,-4.56459643299995
-4.4022,52.8828,150,8442,Pwllheli,ALB/ILB,Gwynedd,West,Wales & North West,Wales,Wales and West,29,52.8828,-4.40219999999995
-4.619960872999968,53.280685305000077,151,8513,Trearddur Bay,ILB,Gwynedd,West,Wales & North West,Wales,Wales and West,29,53.280685305,-4.61996087299995
-3.826255679999974,53.28079837100006,152,8560,Conwy,ILB,Conwy,West,Wales & North West,Wales,Wales and West,30,53.280798371,-3.82625567999995
-3.128462284999955,53.250505758000031,153,8666,Flint,ILB,Flintshire,West,Wales & North West,Wales,Wales and West,30,53.250505758,-3.12846228499995
-3.177598469999964,53.399302056000067,154,1314,Hoylake,ALB,Merseyside,West,Wales & North West,England,Wales and West,30,53.399302056,-3.17759846999995
-3.80225,53.322883300000058,155,8571,Llandudno,ALB/ILB,Conwy,West,Wales & North West,Wales,Wales and West,30,53.322,-3.83399999999995
-3.047264,53.439459,156,1335,New Brighton,ILB/IRH,Merseyside,West,Wales & North West,England,Wales and West,30,53.439459,-3.047264
-3.489,53.3251,157,8592,Rhyl,ALB/ILB,Denbighshire,West,Wales & North West,Wales,Wales and West,30,53.3251,-3.48899999999995
-3.1827,53.3659,158,1301,West Kirby,ILB,Merseyside,West,Wales & North West,England,Wales and West,30,53.3659,-3.18269999999995
-3.173292051999965,54.07240588600007,159,1422,Barrow,ALB/ILB,Cumbria,West,Wales & North West,England,Wales and West,31,54.072405886,-3.17329205199995
-3.0561,53.8133,160,1379,Blackpool,ILB,Lancashire,West,Wales & North West,England,Wales and West,31,53.8133,-3.05609999999995
-3.006441748999976,53.927750562000028,161,1391,Fleetwood,ALB/ILB,Lancashire,West,Wales & North West,England,Wales and West,31,53.927750562,-3.00644174899995
-3.032688715999939,53.746724069000038,162,1357,Lytham St Annes,ALB/ILB,Lancashire,West,West & North West,England,Wales and West,31,53.746724069,-3.03268871599995
-2.8636,54.0751,163,1400,Morecambe,ILB/IRH,Lancashire,West,Wales & North West,England,Wales and West,31,54.0751,-2.86359999999995
-3.393223476999935,54.870050741000057,164,1488,Silloth,ILB,Cumbria,Scotland & North,North & Scot South,England,Wales and West,31,54.870050741,-3.39322347699995
-3.6065,54.491,165,1444,St Bees,ILB,Cumbria,Scotland & North,North & Scot South,England,Wales and West,31,54.491,-3.60649999999995
-3.567659982999942,54.650894359000063,166,1466,Workington,ALB/ILB,Cumbria,Scotland & North,North & Scot South,England,Wales and West,31,54.650894359,-3.56765998299995
-4.857623253999975,55.243381576000047,167,2063,Girvan,ALB,South Ayrshire,Scotland & North,Central & Shetland,Scotland,Scotland,32,55.243381576,-4.85762325399995
-4.773400385999935,56.013128533000042,168,2162,Helensburgh,ILB,Argyll & Bute,Scotland & North,Central & Shetland,Scotland,Scotland,32,56.013128533,-4.77340038599995
-3.8135,54.8765,169,2009,Kippford,ILB,Dumfries And Galloway,Scotland & North,North & Scot South,Scotland,Scotland,32,54.8765,-3.81349999999995
-4.04750680899997,54.839626312000064,170,2027,Kirkcudbright,ILB,Dumfries And Galloway,Scotland & North,North & Scot South,Scotland,Scotland,32,54.8396263122559,-4.04750680923462
-4.870526083999948,55.800010219000058,171,2144,Largs,ILB,North Ayrshire,Scotland & North,Central & Shetland,Scotland,Scotland,32,55.800010219,-4.87052608399995
-5.119849329999965,54.841949070000055,172,2045,Portpatrick,ALB,Dumfries And Galloway,Scotland & North,North & Scot South,Scotland,Scotland,32,54.84194907,-5.11984932999995
-5.035224306999964,54.90813858100006,173,2052,Stranraer,ILB,Dumfries And Galloway,Scotland & North,North & Scot South,Scotland,Scotland,32,54.908138581,-5.03522430699995
-4.6814,55.5481,174,2108,Troon,ALB/ILB,South Ayrshire,Scotland & North,Central & Shetland,Scotland,Scotland,32,55.5481,-4.68139999999995
-5.124792801999945,55.535229375000029,175,2093,Arran (Lamlash),ILB,North Ayrshire,Scotland & North,Central & Shetland,Scotland,Scotland,33,55.535229375,-5.12479280199995
-5.601867729999981,55.425198872000067,176,2081,Campbeltown,ALB/ILB,Argyll & Bute,Scotland & North,Central & Shetland,Scotland,Scotland,33,55.425198872,-5.60186772999995
-6.104799575999948,55.847496,177,2126,Islay,ALB,Argyll & Bute,Scotland & North,Central & Shetland,Scotland,Scotland,33,55.847496,-6.10479957599995
-5.479591703999972,56.41107188400008,178,2194,Oban,ALB,Argyll & Bute,Scotland & North,Highlands,Scotland,Scotland,33,56.411071884,-5.47959170399995
-5.232636793999973,55.906743427000038,179,2180,Tighnabruaich,ILB,Argyll & Bute,Scotland & North,Central & Shetland,Scotland,Scotland,33,55.906743427,-5.23263679399995
-6.064304462999928,56.623206044000028,180,2200,Tobermory,ALB,Argyll & Bute,Scotland & North,Highlands,Scotland,Scotland,33,56.623206044,-6.06430446299995
-7.487128663999954,56.954109894000055,181,2223,Barra Island,ALB,Western Isles,Scotland & North,Central & Shetland,Scotland,Scotland,34,56.954109894,-7.48712866399995
-5.714594910999949,57.280223988000046,182,2229,Kyle Of Lochalsh,ILB,Highland,Scotland & North,Highlands,Scotland,Scotland,34,57.280223988,-5.71459491099995
-7.024840662999964,57.767643531000033,183,2240,Leverburgh,ALB,Highland,Scotland & North,Highlands,Scotland,Scotland,34,57.767643531,-7.02484066299995
-5.247701366999934,58.146891353000058,184,2263,Lochinver,ALB,Highland,Scotland & North,Highlands,Scotland,Scotland,34,58.146891353,-5.24770136699995
-5.8287,57.006,185,2201,Mallaig,ALB,Highland,Scotland & North,Highlands,Scotland,Scotland,34,57.006,-5.8287
-6.189909150999938,57.410714368000072,186,2234,Portree,ALB,Highland,Scotland & North,Highlands,Scotland,Scotland,34,57.410714368,-6.18990915099995
-6.38917135,58.210038876000056,187,2255,Stornoway,ALB,Western Isles,Scotland & North,Highlands,Scotland,Scotland,34,58.210038876,-6.38917134999995
-5.667155451999975,54.665721007000059,188,1133,Bangor,ILB,County Down,Ireland,North & IOM,Northern Ireland,Ireland,35,54.665721007,-5.66715545199995
-5.532000173999961,54.643425808000075,189,1155,Donaghadee,ALB,County Down,Ireland,North & IOM,Northern Ireland,Ireland,35,54.643425808,-5.53200017399995
-7.68,54.4228,190,1098,Enniskillen Lower (Rossigh),ILB,County Fermanagh,Ireland,North & IOM,Northern Ireland,Ireland,35,54.4228,-7.68
-7.548423,54.287517,191,1096,Enniskillen Upper (Carrybridge),ILB,County Fermanagh,Ireland,North & IOM,Northern Ireland,Ireland,35,54.287517,-7.548423
-5.8001,54.8467,192,1130,Larne,ALB/ILB,County Antrim,Ireland,North & IOM,Northern Ireland,Ireland,35,54.8467,-5.80009999999995
-6.656611188999932,55.206818892000058,193,1111,Portrush,ALB/ILB,County Antrim,Ireland,North & IOM,Northern Ireland,Ireland,35,55.206818892,-6.65661118899995
-6.053481845999954,55.074971165000079,194,1128,Red Bay,ILB,County Antrim,Ireland,North & IOM,Northern Ireland,Ireland,35,55.074971165,-6.05348184599995
-4.469598177999956,54.144952601000057,195,1248,Douglas,ALB,Isle Of Man,Ireland,North & IOM,Isle of Man,Ireland,36,54.144952601,-4.46959817799995
-5.989645095999947,54.058654435000051,196,1197,Kilkeel,ILB,County Down,Ireland,North & IOM,Northern Ireland,Ireland,36,54.058654435,-5.98964509599995
-5.887133680999966,54.198053308000055,197,1189,Newcastle,ALB/ILB,County Down,Ireland,North & IOM,Northern Ireland,Ireland,36,54.198053308,-5.88713368099995
-4.698014072999968,54.227063527000041,198,1224,Peel,ALB,Isle Of Man,Ireland,North & IOM,Isle of Man,Ireland,36,54.227063527,-4.69801407299995
-4.767972181999937,54.085135706000074,199,1202,Port Erin,ILB,Isle Of Man,Ireland,North & IOM,Isle of Man,Ireland,36,54.085135706,-4.76797218199995
-4.734509049999929,54.070465815000034,200,1260,Port St Mary,ALB/ILB,Isle Of Man,Ireland,North & IOM,Isle of Man,Ireland,36,54.070465815,-4.73450904999995
-5.549382459999947,54.381029570000067,201,1178,Portaferry,ILB,County Down,Ireland,North & IOM,Northern Ireland,Ireland,36,54.38102957,-5.54938245999995
-4.378388170999926,54.322625790000075,202,1246,Ramsey,ALB,Isle Of Man,Ireland,North & IOM,Isle of Man,Ireland,36,54.32262579,-4.37838817099995
-6.145102807999933,52.791971233000027,203,9190,Arklow,ALB,County Wicklow,Ireland,Central,Ireland,Ireland,37,52.791971233,-6.14510280799995
-6.235384514999964,53.788407950000078,204,9118,Clogher Head,ALB,County Louth,Ireland,Central,Ireland,Ireland,37,53.78840795,-6.23538451499995
-6.129895689999955,53.29308560100003,205,9154,Dun Laoghaire,ALB/ILB,County Dublin,Ireland,Central,Ireland,Ireland,37,53.293085601,-6.12989568999995
-6.068254951999961,53.389622450000047,206,9136,Howth,ALB/ILB,County Dublin,Ireland,Central,Ireland,Ireland,37,53.38962245,-6.06825495199995
-7.928379164999967,53.464033389000065,207,9374,Lough Ree,ILB,County Westmeath,Ireland,Central,Ireland,Ireland,37,53.464033389,-7.92837916499995
-6.105646061999948,53.585827241000061,208,9129,Skerries,ILB,County Dublin,Ireland,Central,Ireland,Ireland,37,53.585827241,-6.10564606199995
-6.032684,52.981601,209,9172,Wicklow,ALB/ILB,County Wicklow,Ireland,Central,Ireland,Ireland,37,52.981601,-6.032684
-6.22591327799995,52.643506345000048,210,9200,Courtown,ILB,County Wexford,Ireland,Central,Ireland,Ireland,38,52.643506345,-6.22591327799995
-6.992517913999961,52.147077293000052,211,9237,Dunmore East,ALB,County Waterford,Ireland,South,Ireland,Ireland,38,52.147077293,-6.99251791399995
-6.838203445999966,52.187758392000035,212,9234,Fethard,ILB,County Wexford,Ireland,South,Ireland,Ireland,38,52.187758392,-6.83820344599995
-7.5398,52.0538,213,9267,Helvick Head,ILB,County Waterford,Ireland,South,Ireland,Ireland,38,52.0538,-7.53979999999995
-6.589876552999954,52.173354334000067,214,9225,Kilmore Quay,ALB,County Wexford,Ireland,South,Ireland,Ireland,38,52.173354334,-6.58987655299995
-6.33581490499995,52.253975556000057,215,9203,Rosslare Harbour,ALB,County Wexford,Ireland,Central,Ireland,Ireland,38,52.253975556,-6.33581490499995
-7.160562047999974,52.15409635900005,216,9259,Tramore,ILB,County Waterford,Ireland,South,Ireland,Ireland,38,52.154096359,-7.16056204799995
-6.461634870999944,52.341891150000038,217,9202,Wexford,ILB,County Wexford,Ireland,Central,Ireland,Ireland,38,52.34189115,-6.46163487099995
-7.84418788399995,51.951456628000074,218,9271,Youghal,ILB,County Cork,Ireland,South,Ireland,Ireland,38,51.951456628,-7.84418788399995
-8.001682132999974,51.826984275000029,219,9292,Ballycotton,ALB,County Cork,Ireland,South,Ireland,Ireland,39,51.826984275,-8.00168213299995
-9.372083241999974,51.487760827000045,220,9322,Baltimore,ALB/ILB,County Cork,Ireland,South,Ireland,Ireland,39,51.487760827,-9.37208324199995
-9.901900769999941,51.648978253000053,221,9338,Castletownbere,ALB,County Cork,Ireland,South,Ireland,Ireland,39,51.648978253,-9.90190076999995
-8.709275753999975,51.634941476000051,222,9300,Courtmacsherry Harbour,ALB,County Cork,Ireland,South,Ireland,Ireland,39,51.634941476,-8.70927575399995
-8.297909750999963,51.804435498000032,223,9298,Crosshaven,ILB,County Cork,Ireland,South,Ireland,Ireland,39,51.804435498,-8.29790975099995
-8.518,51.7001,224,9299,Kinsale,ILB,County Cork,Ireland,South,Ireland,Ireland,39,51.7001,-8.51799999999995
-9.133952895999926,51.558712080000078,225,9311,Union Hall,ILB,County Cork,Ireland,South,Ireland,Ireland,39,51.55871208,-9.13395289599995
-9.667940150999925,53.12307994300005,226,9366,Aran Islands,ALB,County Galway,Ireland,Central,Ireland,Ireland,40,53.123079943,-9.66794015099995
-10.029777659999979,53.48585328300004,227,9377,Clifden,ILB,County Galway,Ireland,Central,Ireland,Ireland,40,53.485853283,-10.0297776599999
-9.863121253999964,52.271712099000069,228,9353,Fenit,ALB/ILB,County Kerry,Ireland,South,Ireland,Ireland,40,52.271712099,-9.86312125399995
-9.046869816999958,53.269160471000077,229,9371,Galway,ILB,County Galway,Ireland,Central,Ireland,Ireland,40,53.269160471,-9.04686981699995
-9.500569926999958,52.62994492100006,230,9360,Kilrush,ILB,County Clare,Ireland,South,Ireland,Ireland,40,52.629944921,-9.50056992699995
-8.275910316999955,52.925978457000042,231,9357,Lough Derg,ILB,County Donegal,Ireland,Central,Ireland,Ireland,40,52.925978457,-8.27591031699995
-10.288281722999955,51.92681710800008,232,9344,Valentia,ALB,County Kerry,Ireland,South,Ireland,Ireland,40,51.926817108,-10.2882817229999
-9.944697,53.882786,233,9380,Achill Island,ALB,County Mayo,Ireland,Central,Ireland,Ireland,41,53.882786,-9.94469699999995
-8.498311415999979,54.997130045000063,234,9388,Arranmore,ALB,County Donegal,Ireland,North & IOM,Ireland,Ireland,41,54.997130045,-8.49831141599995
-9.893222,54.253746,235,9382,Ballyglass,ALB/ILB,County Mayo,Ireland,Central,Ireland,Ireland,41,54.253746,-9.893222
-8.28909125399997,54.477008697000031,236,9385,Bundoran,ILB,County Donegal,Ireland,North & IOM,Ireland,Ireland,41,54.477008697,-8.28909125399995
-7.473456829999975,55.140875811000058,237,9584,Lough Swilly,ALB/ILB,County Donegal,Ireland,North & IOM,Ireland,Ireland,41,55.140875811,-7.47345682999995
-8.567927266999959,54.305058667000083,238,9384,Sligo Bay,ILB,County Sligo,Ireland,North & IOM,Ireland,Ireland,41,54.305058667,-8.56792726699995
